
COMS 1
1 36744U 10032A   26170.15441709  .00000079  00000+0  00000+0 0  9991
2 36744   4.8110  75.3322 0011598  11.9988 301.2352  0.99162929 51102

CYGFM01
1 41887U 16078D   26170.28348628  .00019751  00000+0  26023-3 0  9995
2 41887  34.9390 247.7484 0006945 165.5900 194.5024 15.57430535529036

CYGFM02
1 41886U 16078C   26170.19263564  .00028540  00000+0  28420-3 0  9998
2 41886  34.9389 209.3747 0007978 214.2584 145.7628 15.64609428529480

CYGFM03
1 41891U 16078H   26170.23338230  .00023364  00000+0  27686-3 0  9994
2 41891  34.9387 217.8810 0006805 200.7456 159.2994 15.60200644529293

CYGFM04
1 41885U 16078B   26170.19580553  .00024860  00000+0  27891-3 0  9999
2 41885  34.9308 214.8768 0006927 213.0717 146.9576 15.61606168529314

CYGFM05
1 41884U 16078A   26170.29569256  .00019084  00000+0  25796-3 0  9990
2 41884  34.9559 246.6266 0007207 172.0017 188.0823 15.56750886529083

CYGFM07
1 41890U 16078G   26170.26236625  .00022791  00000+0  27000-3 0  9994
2 41890  34.9431 215.7517 0007366 212.7265 147.3004 15.60206957529324

CYGFM08
1 41888U 16078E   26170.23936716  .00023227  00000+0  27603-3 0  9990
2 41888  34.9416 227.5653 0008604 196.3434 163.7014 15.60108660529298

DMSP 5D-3 F16 (USA 172)
1 28054U 03048A   26170.31100694 -.00000041  00000+0  22436-5 0  9991
2 28054  98.9889 194.1535 0007840 134.8090  50.0267 14.14483144169789

DMSP 5D-3 F17 (USA 191)
1 29522U 06050A   26170.22032392 -.00000013  00000+0  15710-4 0  9992
2 29522  98.7378 176.7489 0011103  54.1161 306.1042 14.14993128 12719

DMSP 5D-3 F18 (USA 210)
1 35951U 09057A   26170.26255367  .00000229  00000+0  14144-3 0  9995
2 35951  98.9038 151.0271 0009936 242.9565 117.0595 14.14897928859888

ELEKTRO-L 2
1 41105U 15074A   26169.03651196 -.00000126  00000+0  00000+0 0  9991
2 41105   6.6975  70.5132 0000902 256.1704 298.2263  1.00270556 38515

EWS-G2 (GOES 15)
1 36411U 10008A   26170.20650098  .00000013  00000+0  00000+0 0  9992
2 36411   1.2841  82.8145 0004869  42.1564 280.4817  1.00266444 59652

FENGYUN 2G
1 40367U 14090A   26169.77205716 -.00000311  00000+0  00000+0 0  9997
2 40367   5.6437  72.7972 0003932 158.4572  53.3769  1.00271330 42017

FENGYUN 3A
1 32958U 08026A   26170.09135364  .00000060  00000+0  48869-4 0  9994
2 32958  98.6883 110.8889 0009653 118.6525 241.5623 14.19571471935670

FENGYUN 3B
1 37214U 10059A   26170.28954440  .00000073  00000+0  61179-4 0  9991
2 37214  98.9611 216.3135 0022048 178.0239 271.8346 14.14841408807720

FENGYUN 3C
1 39260U 13052A   26170.23469249  .00000069  00000+0  56186-4 0  9990
2 39260  98.4987 144.0155 0015134  22.0007 338.1814 14.15755510658856

FENGYUN 4A
1 41882U 16077A   26170.27582779 -.00000364  00000+0  00000+0 0  9999
2 41882   2.3287  80.2557 0008698 153.5599 256.7151  1.00267408 34958

GOES 14
1 35491U 09033A   26170.27920780 -.00000306  00000+0  00000+0 0  9996
2 35491   1.6965  83.0184 0001856  12.3036  53.3158  1.00110302  6616

GOES 16
1 41866U 16071A   26170.23060549 -.00000097  00000+0  00000+0 0  9990
2 41866   0.3475  85.5128 0000269 331.5163 188.7509  1.00271255 35126

HIMAWARI-8
1 40267U 14060A   26170.27920780 -.00000282  00000+0  00000+0 0  9992
2 40267   0.0148  41.2707 0001100  50.6901  56.7248  1.00271066 42784

HIMAWARI-9
1 41836U 16064A   26170.27920780 -.00000281  00000+0  00000+0 0  9990
2 41836   0.0172 307.7649 0001007 181.4804  19.5297  1.00270188 35237

INSAT-3D
1 39216U 13038B   26170.27695447 -.00000346  00000+0  00000+0 0  9998
2 39216   1.9325  82.5155 0000610 321.3577  92.8203  1.00268340 47104

INSAT-3DR
1 41752U 16054A   26170.12341192 -.00000083  00000+0  00000+0 0  9994
2 41752   0.1116  86.2138 0010500 187.5892 111.9439  1.00271111 35835

METEOR-M 2
1 40069U 14037A   26170.25730292  .00000461  00000+0  22987-3 0  9991
2 40069  98.5117 145.9229 0006687  39.2309 320.9353 14.21463426619618

METEOSAT-10 (MSG-3)
1 38552U 12035B   26170.03753987 -.00000014  00000+0  00000+0 0  9996
2 38552   4.6769  61.0157 0001437   1.0805 218.9888  1.00266258 50870

METEOSAT-11 (MSG-4)
1 40732U 15034A   26170.25327440  .00000056  00000+0  00000+0 0  9991
2 40732   3.2061  71.0943 0002422 346.2706 310.9097  1.00263709  7231

METEOSAT-9 (MSG-2)
1 28912U 05049B   26169.83258696  .00000114  00000+0  00000+0 0  9995
2 28912   9.3658  54.1535 0001716 345.3182 212.9689  1.00272994  7018

METOP-B
1 38771U 12049A   26170.30136410  .00000072  00000+0  52893-4 0  9995
2 38771  98.6504 221.7585 0002107  14.2570 345.8667 14.21433239713562

SENTINEL-3A
1 41335U 16011A   26170.25032001  .00000090  00000+0  55077-4 0  9990
2 41335  98.6249 237.6045 0001412  99.7773 260.3567 14.26733252538351

SUOMI NPP
1 37849U 11061A   26170.31415307  .00000059  00000+0  48984-4 0  9990
2 37849  98.7953 111.1757 0001416   1.7277 358.3904 14.19517791758741
